<?xml version="1.0" encoding="UTF-8"?>
<gpx version="1.1" creator="Casaway proof of concept" xmlns="http://www.topografix.com/GPX/1/1">
  <metadata>
    <name>Illustrative Casa-Port to Maarif taxi trace</name>
    <desc>Demonstration geometry only. Not a verified road route or fare.</desc>
  </metadata>
  <wpt lat="33.6002" lon="-7.6119"><name>Casa-Port</name></wpt>
  <wpt lat="33.5824" lon="-7.6361"><name>Maarif</name></wpt>
  <trk>
    <name>Casa-Port to Maarif</name>
    <trkseg>
      <trkpt lat="33.6002" lon="-7.6119" />
      <trkpt lat="33.5989" lon="-7.6081" />
      <trkpt lat="33.5962" lon="-7.6068" />
      <trkpt lat="33.5938" lon="-7.6087" />
      <trkpt lat="33.5912" lon="-7.6134" />
      <trkpt lat="33.5890" lon="-7.6190" />
      <trkpt lat="33.5868" lon="-7.6252" />
      <trkpt lat="33.5842" lon="-7.6304" />
      <trkpt lat="33.5824" lon="-7.6361" />
    </trkseg>
  </trk>
</gpx>
